{"type": "FeatureCollection", "features": [ {"type": "Feature", "properties": {"norad_id": 34026, "name": "COSMOS 2251 DEB", "group": "cosmos-2251-debris", "lat": -29.81637146520316, "lon": -13.077636320963464, "alt_km": 1061.4451985123105, "timestamp": "2025-12-01T03:58:49.144700+00:00", "meta": {"OBJECT_NAME": "COSMOS 2251 DEB", "OBJECT_ID": "1993-036HM", "EPOCH": "2025-11-30T20:14:40.540128", "MEAN_MOTION": 13.6526878, "ECCENTRICITY": 0.0351329, "INCLINATION": 73.7675, "RA_OF_ASC_NODE": 357.0686, "ARG_OF_PERICENTER": 228.7994, "MEAN_ANOMALY": 312.5186, "EPHEMERIS_TYPE": 0, "CLASSIFICATION_TYPE": "U", "NORAD_CAT_ID": 34026, "ELEMENT_SET_NO": 999, "REV_AT_EPOCH": 83369, "BSTAR": 0.0010479, "MEAN_MOTION_DOT": 1.273e-05, "MEAN_MOTION_DDOT": 0, "GROUP": "cosmos-2251-debris"}, "tle": {"line1": "1 34026U 93036HM  25334.84352477  .00001273  00000+0  10479-2 0  9998", "line2": "2 34026  73.7675 357.0686 0351329 228.7994 312.5186 13.65268780833692"}}, "geometry": {"type": "Point", "coordinates": [-13.077636320963464, -29.81637146520316]}}, {"type": "Feature", "properties": {"norad_id": 34028, "name": "COSMOS 2251 DEB", "group": "cosmos-2251-debris", "lat": 33.462163178810215, "lon": 16.011454416794813, "alt_km": 1298.3776747370757, "timestamp": "2025-12-01T03:58:49.144712+00:00", "meta": {"OBJECT_NAME": "COSMOS 2251 DEB", "OBJECT_ID": "1993-036HP", "EPOCH": "2025-11-30T14:02:55.771008", "MEAN_MOTION": 13.20614355, "ECCENTRICITY": 0.0544298, "INCLINATION": 73.884, "RA_OF_ASC_NODE": 5.8852, "ARG_OF_PERICENTER": 145.8018, "MEAN_ANOMALY": 16.5286, "EPHEMERIS_TYPE": 0, "CLASSIFICATION_TYPE": "U", "NORAD_CAT_ID": 34028, "ELEMENT_SET_NO": 999, "REV_AT_EPOCH": 80847, "BSTAR": 0.0002684, "MEAN_MOTION_DOT": 2.2e-06, "MEAN_MOTION_DDOT": 0, "GROUP": "cosmos-2251-debris"}, "tle": {"line1": "1 34028U 93036HP  25334.58536772  .00000220  00000+0  26840-3 0  9994", "line2": "2 34028  73.8840   5.8852 0544298 145.8018  16.5286 13.20614355808471"}}, "geometry": {"type": "Point", "coordinates": [16.011454416794813, 33.462163178810215]}}, {"type": "Feature", "properties": {"norad_id": 34031, "name": "COSMOS 2251 DEB", "group": "cosmos-2251-debris", "lat": -55.60685181302285, "lon": 133.04854649845987, "alt_km": 686.5843626871692, "timestamp": "2025-12-01T03:58:49.144722+00:00", "meta": {"OBJECT_NAME": "COSMOS 2251 DEB", "OBJECT_ID": "1993-036HS", "EPOCH": "2025-11-30T15:37:48.946080", "MEAN_MOTION": 14.5946213, "ECCENTRICITY": 0.0022932, "INCLINATION": 74.0123, "RA_OF_ASC_NODE": 158.7911, "ARG_OF_PERICENTER": 279.656, "MEAN_ANOMALY": 198.6071, "EPHEMERIS_TYPE": 0, "CLASSIFICATION_TYPE": "U", "NORAD_CAT_ID": 34031, "ELEMENT_SET_NO": 999, "REV_AT_EPOCH": 88389, "BSTAR": 0.0011505, "MEAN_MOTION_DOT": 5.451e-05, "MEAN_MOTION_DDOT": 0, "GROUP": "cosmos-2251-debris"}, "tle": {"line1": "1 34031U 93036HS  25334.65126095  .00005451  00000+0  11505-2 0  9991", "line2": "2 34031  74.0123 158.7911 0022932 279.6560 198.6071 14.59462130883898"}}, "geometry": {"type": "Point", "coordinates": [133.04854649845987, -55.60685181302285]}}, {"type": "Feature", "properties": {"norad_id": 34035, "name": "COSMOS 2251 DEB", "group": "cosmos-2251-debris", "lat": 62.12412706789666, "lon": 43.592441111777376, "alt_km": 694.1298620377556, "timestamp": "2025-12-01T03:58:49.144732+00:00", "meta": {"OBJECT_NAME": "COSMOS 2251 DEB", "OBJECT_ID": "1993-036HW", "EPOCH": "2025-11-30T09:33:20.059776", "MEAN_MOTION": 14.51710907, "ECCENTRICITY": 0.00438966, "INCLINATION": 74.0664, "RA_OF_ASC_NODE": 12.3441, "ARG_OF_PERICENTER": 17.0682, "MEAN_ANOMALY": 358.9265, "EPHEMERIS_TYPE": 0, "CLASSIFICATION_TYPE": "U", "NORAD_CAT_ID": 34035, "ELEMENT_SET_NO": 999, "REV_AT_EPOCH": 87787, "BSTAR": 0.0014183498, "MEAN_MOTION_DOT": 5.743e-05, "MEAN_MOTION_DDOT": 0, "GROUP": "cosmos-2251-debris"}, "tle": {"line1": "1 34035U 93036HW  25334.39814884  .00005743  00000+0  14183-2 0  9995", "line2": "2 34035  74.0664  12.3441 0043896  17.0682 358.9265 14.51710907877873"}}, "geometry": {"type": "Point", "coordinates": [43.592441111777376, 62.12412706789666]}}, {"type": "Feature", "properties": {"norad_id": 34036, "name": "COSMOS 2251 DEB", "group": "cosmos-2251-debris", "lat": 0.4321334636832492, "lon": 172.72462790526714, "alt_km": 598.9974426842318, "timestamp": "2025-12-01T03:58:49.144742+00:00", "meta": {"OBJECT_NAME": "COSMOS 2251 DEB", "OBJECT_ID": "1993-036HX", "EPOCH": "2025-11-30T16:43:30.692064", "MEAN_MOTION": 14.93537589, "ECCENTRICITY": 0.0015374, "INCLINATION": 74.0212, "RA_OF_ASC_NODE": 173.5448, "ARG_OF_PERICENTER": 208.3398, "MEAN_ANOMALY": 151.6951, "EPHEMERIS_TYPE": 0, "CLASSIFICATION_TYPE": "U", "NORAD_CAT_ID": 34036, "ELEMENT_SET_NO": 999, "REV_AT_EPOCH": 88390, "BSTAR": 0.0033387, "MEAN_MOTION_DOT": 0.0003541, "MEAN_MOTION_DDOT": 0, "GROUP": "cosmos-2251-debris"}, "tle": {"line1": "1 34036U 93036HX  25334.69688301  .00035410  00000+0  33387-2 0  9993", "line2": "2 34036  74.0212 173.5448 0015374 208.3398 151.6951 14.93537589883909"}}, "geometry": {"type": "Point", "coordinates": [172.72462790526714, 0.4321334636832492]}}, {"type": "Feature", "properties": {"norad_id": 34037, "name": "COSMOS 2251 DEB", "group": "cosmos-2251-debris", "lat": 19.889075482770977, "lon": 77.56156843688831, "alt_km": 785.1764913049738, "timestamp": "2025-12-01T03:58:49.144752+00:00", "meta": {"OBJECT_NAME": "COSMOS 2251 DEB", "OBJECT_ID": "1993-036HY", "EPOCH": "2025-11-30T16:10:06.127392", "MEAN_MOTION": 14.34608045, "ECCENTRICITY": 0.0052578, "INCLINATION": 74.0521, "RA_OF_ASC_NODE": 72.524, "ARG_OF_PERICENTER": 126.141, "MEAN_ANOMALY": 234.4625, "EPHEMERIS_TYPE": 0, "CLASSIFICATION_TYPE": "U", "NORAD_CAT_ID": 34037, "ELEMENT_SET_NO": 999, "REV_AT_EPOCH": 87544, "BSTAR": 0.00058092, "MEAN_MOTION_DOT": 1.642e-05, "MEAN_MOTION_DDOT": 0, "GROUP": "cosmos-2251-debris"}, "tle": {"line1": "1 34037U 93036HY  25334.67368203  .00001642  00000+0  58092-3 0  9999", "line2": "2 34037  74.0521  72.5240 0052578 126.1410 234.4625 14.34608045875449"}}, "geometry": {"type": "Point", "coordinates": [77.56156843688831, 19.889075482770977]}}, {"type": "Feature", "properties": {"norad_id": 34040, "name": "COSMOS 2251 DEB", "group": "cosmos-2251-debris", "lat": 25.063962699471187, "lon": -102.74781303425362, "alt_km": 1095.6630504924487, "timestamp": "2025-12-01T03:58:49.144763+00:00", "meta": {"OBJECT_NAME": "COSMOS 2251 DEB", "OBJECT_ID": "1993-036JB", "EPOCH": "2025-11-30T14:58:46.895232", "MEAN_MOTION": 13.68356272, "ECCENTRICITY": 0.0342799, "INCLINATION": 73.9552, "RA_OF_ASC_NODE": 85.8812, "ARG_OF_PERICENTER": 41.7742, "MEAN_ANOMALY": 320.9003, "EPHEMERIS_TYPE": 0, "CLASSIFICATION_TYPE": "U", "NORAD_CAT_ID": 34040, "ELEMENT_SET_NO": 999, "REV_AT_EPOCH": 83434, "BSTAR": 0.00033794, "MEAN_MOTION_DOT": 4.14e-06, "MEAN_MOTION_DDOT": 0, "GROUP": "cosmos-2251-debris"}, "tle": {"line1": "1 34040U 93036JB  25334.62415388  .00000414  00000+0  33794-3 0  9993", "line2": "2 34040  73.9552  85.8812 0342799  41.7742 320.9003 13.68356272834347"}}, "geometry": {"type": "Point", "coordinates": [-102.74781303425362, 25.063962699471187]}}, {"type": "Feature", "properties": {"norad_id": 34045, "name": "COSMOS 2251 DEB", "group": "cosmos-2251-debris", "lat": 74.02826083632304, "lon": 62.50421771666589, "alt_km": 755.2542221891499, "timestamp": "2025-12-01T03:58:49.144773+00:00", "meta": {"OBJECT_NAME": "COSMOS 2251 DEB", "OBJECT_ID": "1993-036JG", "EPOCH": "2025-11-30T11:22:44.071680", "MEAN_MOTION": 14.34057755, "ECCENTRICITY": 0.00252821, "INCLINATION": 74.0386, "RA_OF_ASC_NODE": 333.2759, "ARG_OF_PERICENTER": 60.5544, "MEAN_ANOMALY": 59.7585, "EPHEMERIS_TYPE": 0, "CLASSIFICATION_TYPE": "U", "NORAD_CAT_ID": 34045, "ELEMENT_SET_NO": 999, "REV_AT_EPOCH": 87857, "BSTAR": 0.00010112475, "MEAN_MOTION_DOT": 2.58e-06, "MEAN_MOTION_DDOT": 0, "GROUP": "cosmos-2251-debris"}, "tle": {"line1": "1 34045U 93036JG  25334.47412120  .00000258  00000+0  10112-3 0  9997", "line2": "2 34045  74.0386 333.2759 0025282  60.5544  59.7585 14.34057755878576"}}, "geometry": {"type": "Point", "coordinates": [62.50421771666589, 74.02826083632304]}}, {"type": "Feature", "properties": {"norad_id": 34046, "name": "COSMOS 2251 DEB", "group": "cosmos-2251-debris", "lat": -67.84643258466845, "lon": -12.576773580014923, "alt_km": 796.5543663704311, "timestamp": "2025-12-01T03:58:49.144783+00:00", "meta": {"OBJECT_NAME": "COSMOS 2251 DEB", "OBJECT_ID": "1993-036JH", "EPOCH": "2025-11-30T13:56:58.581312", "MEAN_MOTION": 14.46312568, "ECCENTRICITY": 0.007506, "INCLINATION": 74.0403, "RA_OF_ASC_NODE": 33.1715, "ARG_OF_PERICENTER": 120.2025, "MEAN_ANOMALY": 2.5023, "EPHEMERIS_TYPE": 0, "CLASSIFICATION_TYPE": "U", "NORAD_CAT_ID": 34046, "ELEMENT_SET_NO": 999, "REV_AT_EPOCH": 87650, "BSTAR": 0.0011768, "MEAN_MOTION_DOT": 4.345e-05, "MEAN_MOTION_DDOT": 0, "GROUP": "cosmos-2251-debris"}, "tle": {"line1": "1 34046U 93036JH  25334.58123358  .00004345  00000+0  11768-2 0  9990", "line2": "2 34046  74.0403  33.1715 0075060 120.2025   2.5023 14.46312568876505"}}, "geometry": {"type": "Point", "coordinates": [-12.576773580014923, -67.84643258466845]}}]}